CYGNUS NG-23            
1 65616U 25208A   26001.79090475  .00014103  00000+0  26338-3 0  9994
2 65616  51.6329  43.1850 0007502 328.5908  31.4631 15.49013666   225
DRAGONFLY               
1 65729U 98067XH  26002.09706670  .00344420  00000+0  16938-2 0  9999
2 65729  51.6238  30.9380 0008788  35.0926 325.0653 15.80614287 16378
1998-067XK              
1 65731U 98067XK  26002.13140228  .00162747  00000+0  12849-2 0  9995
2 65731  51.6289  33.4598 0005302  10.7855 349.3255 15.70344026 16340
RSP-03                  
1 65732U 98067XL  26002.08965151  .00238894  00000+0  15376-2 0  9995
2 65732  51.6259  32.4101 0006451  16.9983 343.1231 15.74900030 16368
GHS-01                  
1 65733U 98067XM  26001.42898134  .00502215  00000+0  18735-2 0  9992
2 65733  51.6263  33.2330 0009891  35.7357 324.4307 15.86066620 16291
YOTSUBA-KULOVER         
1 65941U 98067XN  26001.56071904  .00115643  00000+0  12620-2 0  9998
2 65941  51.6300  40.1525 0003370  38.1673 321.9559 15.62488013 12959
BOTAN                   
1 65942U 98067XP  26001.95905527  .00181053  00000+0  15792-2 0  9990
2 65942  51.6276  36.8072 0004324  27.9219 332.2009 15.67867696 13031
E-KAGAKU-1              
1 65943U 98067XQ  26001.36880288  .00107212  00000+0  11721-2 0  9995
2 65943  51.6307  41.1262 0002024  24.8503 335.2588 15.62480347 12925
HRC MONOBLOCK CAMERA    
1 66052U 98067XR  26002.08960688  .00048749  00000+0  69791-3 0  9990
2 66052  51.6311  39.9312 0001520 296.1606  63.9228 15.55696600 12009
HTV-X1                  
1 66174U 25241A   26001.79090475  .00014103  00000+0  26338-3 0  9991
2 66174  51.6329  43.1850 0007502 328.5908  31.4631 15.49013666   517
SZ-21 MODULE            
1 66515U 25246C   26002.04942874  .00040185  00000+0  41968-3 0  9998
2 66515  41.4758 252.0509 0002575  18.3037 341.7895 15.63714409  7620
SHENZHOU-22             
1 66645U 25272A   26001.95000001  .00026593  00000+0  32148-3 0  9994
2 66645  41.4663 253.9368 0010148 200.7574 159.2853 15.60041329267142
