CCSDS_OMM_VERS = 2.0
CREATION_DATE  = 
ORIGINATOR     = 

OBJECT_NAME    = CYGNUS NG-23
OBJECT_ID      = 2025-208A
CENTER_NAME    = EARTH
REF_FRAME      = TEME
TIME_SYSTEM    = UTC
MEAN_ELEMENT_THEORY = SGP/SGP4

EPOCH          = 2026-01-01T18:58:54.170400
MEAN_MOTION    = 15.49013666
ECCENTRICITY   = .00075024
INCLINATION    = 51.6329
RA_OF_ASC_NODE = 43.1850
ARG_OF_PERICENTER = 328.5908
MEAN_ANOMALY   = 31.4631

EPHEMERIS_TYPE = 0
CLASSIFICATION_TYPE = U
NORAD_CAT_ID   = 65616
ELEMENT_SET_NO = 999
REV_AT_EPOCH   = 22
BSTAR          = .2633784E-3
MEAN_MOTION_DOT = .14103E-3
MEAN_MOTION_DDOT = 0

CCSDS_OMM_VERS = 2.0
CREATION_DATE  = 
ORIGINATOR     = 

OBJECT_NAME    = DRAGONFLY
OBJECT_ID      = 1998-067XH
CENTER_NAME    = EARTH
REF_FRAME      = TEME
TIME_SYSTEM    = UTC
MEAN_ELEMENT_THEORY = SGP/SGP4

EPOCH          = 2026-01-02T02:19:46.562880
MEAN_MOTION    = 15.80614287
ECCENTRICITY   = .0008788
INCLINATION    = 51.6238
RA_OF_ASC_NODE = 30.9380
ARG_OF_PERICENTER = 35.0926
MEAN_ANOMALY   = 325.0653

EPHEMERIS_TYPE = 0
CLASSIFICATION_TYPE = U
NORAD_CAT_ID   = 65729
ELEMENT_SET_NO = 999
REV_AT_EPOCH   = 1637
BSTAR          = .16938E-2
MEAN_MOTION_DOT = .34442E-2
MEAN_MOTION_DDOT = 0

CCSDS_OMM_VERS = 2.0
CREATION_DATE  = 
ORIGINATOR     = 

OBJECT_NAME    = 1998-067XK
OBJECT_ID      = 1998-067XK
CENTER_NAME    = EARTH
REF_FRAME      = TEME
TIME_SYSTEM    = UTC
MEAN_ELEMENT_THEORY = SGP/SGP4

EPOCH          = 2026-01-02T03:09:13.156992
MEAN_MOTION    = 15.70344026
ECCENTRICITY   = .0005302
INCLINATION    = 51.6289
RA_OF_ASC_NODE = 33.4598
ARG_OF_PERICENTER = 10.7855
MEAN_ANOMALY   = 349.3255

EPHEMERIS_TYPE = 0
CLASSIFICATION_TYPE = U
NORAD_CAT_ID   = 65731
ELEMENT_SET_NO = 999
REV_AT_EPOCH   = 1634
BSTAR          = .12849E-2
MEAN_MOTION_DOT = .162747E-2
MEAN_MOTION_DDOT = 0

CCSDS_OMM_VERS = 2.0
CREATION_DATE  = 
ORIGINATOR     = 

OBJECT_NAME    = RSP-03
OBJECT_ID      = 1998-067XL
CENTER_NAME    = EARTH
REF_FRAME      = TEME
TIME_SYSTEM    = UTC
MEAN_ELEMENT_THEORY = SGP/SGP4

EPOCH          = 2026-01-02T02:09:05.890464
MEAN_MOTION    = 15.74900030
ECCENTRICITY   = .0006451
INCLINATION    = 51.6259
RA_OF_ASC_NODE = 32.4101
ARG_OF_PERICENTER = 16.9983
MEAN_ANOMALY   = 343.1231

EPHEMERIS_TYPE = 0
CLASSIFICATION_TYPE = U
NORAD_CAT_ID   = 65732
ELEMENT_SET_NO = 999
REV_AT_EPOCH   = 1636
BSTAR          = .15376E-2
MEAN_MOTION_DOT = .238894E-2
MEAN_MOTION_DDOT = 0

CCSDS_OMM_VERS = 2.0
CREATION_DATE  = 
ORIGINATOR     = 

OBJECT_NAME    = GHS-01
OBJECT_ID      = 1998-067XM
CENTER_NAME    = EARTH
REF_FRAME      = TEME
TIME_SYSTEM    = UTC
MEAN_ELEMENT_THEORY = SGP/SGP4

EPOCH          = 2026-01-01T10:17:43.987776
MEAN_MOTION    = 15.86066620
ECCENTRICITY   = .0009891
INCLINATION    = 51.6263
RA_OF_ASC_NODE = 33.2330
ARG_OF_PERICENTER = 35.7357
MEAN_ANOMALY   = 324.4307

EPHEMERIS_TYPE = 0
CLASSIFICATION_TYPE = U
NORAD_CAT_ID   = 65733
ELEMENT_SET_NO = 999
REV_AT_EPOCH   = 1629
BSTAR          = .18735E-2
MEAN_MOTION_DOT = .502215E-2
MEAN_MOTION_DDOT = 0

CCSDS_OMM_VERS = 2.0
CREATION_DATE  = 
ORIGINATOR     = 

OBJECT_NAME    = YOTSUBA-KULOVER
OBJECT_ID      = 1998-067XN
CENTER_NAME    = EARTH
REF_FRAME      = TEME
TIME_SYSTEM    = UTC
MEAN_ELEMENT_THEORY = SGP/SGP4

EPOCH          = 2026-01-01T13:27:26.125056
MEAN_MOTION    = 15.62488013
ECCENTRICITY   = .000337
INCLINATION    = 51.6300
RA_OF_ASC_NODE = 40.1525
ARG_OF_PERICENTER = 38.1673
MEAN_ANOMALY   = 321.9559

EPHEMERIS_TYPE = 0
CLASSIFICATION_TYPE = U
NORAD_CAT_ID   = 65941
ELEMENT_SET_NO = 999
REV_AT_EPOCH   = 1295
BSTAR          = .12619722E-2
MEAN_MOTION_DOT = .115643E-2
MEAN_MOTION_DDOT = 0

CCSDS_OMM_VERS = 2.0
CREATION_DATE  = 
ORIGINATOR     = 

OBJECT_NAME    = BOTAN
OBJECT_ID      = 1998-067XP
CENTER_NAME    = EARTH
REF_FRAME      = TEME
TIME_SYSTEM    = UTC
MEAN_ELEMENT_THEORY = SGP/SGP4

EPOCH          = 2026-01-01T23:01:02.375328
MEAN_MOTION    = 15.67867696
ECCENTRICITY   = .00043244
INCLINATION    = 51.6276
RA_OF_ASC_NODE = 36.8072
ARG_OF_PERICENTER = 27.9219
MEAN_ANOMALY   = 332.2009

EPHEMERIS_TYPE = 0
CLASSIFICATION_TYPE = U
NORAD_CAT_ID   = 65942
ELEMENT_SET_NO = 999
REV_AT_EPOCH   = 1303
BSTAR          = .15791938E-2
MEAN_MOTION_DOT = .181053E-2
MEAN_MOTION_DDOT = 0

CCSDS_OMM_VERS = 2.0
CREATION_DATE  = 
ORIGINATOR     = 

OBJECT_NAME    = E-KAGAKU-1
OBJECT_ID      = 1998-067XQ
CENTER_NAME    = EARTH
REF_FRAME      = TEME
TIME_SYSTEM    = UTC
MEAN_ELEMENT_THEORY = SGP/SGP4

EPOCH          = 2026-01-01T08:51:04.568832
MEAN_MOTION    = 15.62480347
ECCENTRICITY   = .00020247
INCLINATION    = 51.6307
RA_OF_ASC_NODE = 41.1262
ARG_OF_PERICENTER = 24.8503
MEAN_ANOMALY   = 335.2588

EPHEMERIS_TYPE = 0
CLASSIFICATION_TYPE = U
NORAD_CAT_ID   = 65943
ELEMENT_SET_NO = 999
REV_AT_EPOCH   = 1292
BSTAR          = .11721053E-2
MEAN_MOTION_DOT = .107212E-2
MEAN_MOTION_DDOT = 0

CCSDS_OMM_VERS = 2.0
CREATION_DATE  = 
ORIGINATOR     = 

OBJECT_NAME    = HRC MONOBLOCK CAMERA
OBJECT_ID      = 1998-067XR
CENTER_NAME    = EARTH
REF_FRAME      = TEME
TIME_SYSTEM    = UTC
MEAN_ELEMENT_THEORY = SGP/SGP4

EPOCH          = 2026-01-02T02:09:02.034432
MEAN_MOTION    = 15.55696600
ECCENTRICITY   = .000152
INCLINATION    = 51.6311
RA_OF_ASC_NODE = 39.9312
ARG_OF_PERICENTER = 296.1606
MEAN_ANOMALY   = 63.9228

EPHEMERIS_TYPE = 0
CLASSIFICATION_TYPE = U
NORAD_CAT_ID   = 66052
ELEMENT_SET_NO = 999
REV_AT_EPOCH   = 1200
BSTAR          = .69791E-3
MEAN_MOTION_DOT = .48749E-3
MEAN_MOTION_DDOT = 0

CCSDS_OMM_VERS = 2.0
CREATION_DATE  = 
ORIGINATOR     = 

OBJECT_NAME    = HTV-X1
OBJECT_ID      = 2025-241A
CENTER_NAME    = EARTH
REF_FRAME      = TEME
TIME_SYSTEM    = UTC
MEAN_ELEMENT_THEORY = SGP/SGP4

EPOCH          = 2026-01-01T18:58:54.170400
MEAN_MOTION    = 15.49013666
ECCENTRICITY   = .00075024
INCLINATION    = 51.6329
RA_OF_ASC_NODE = 43.1850
ARG_OF_PERICENTER = 328.5908
MEAN_ANOMALY   = 31.4631

EPHEMERIS_TYPE = 0
CLASSIFICATION_TYPE = U
NORAD_CAT_ID   = 66174
ELEMENT_SET_NO = 999
REV_AT_EPOCH   = 51
BSTAR          = .2633784E-3
MEAN_MOTION_DOT = .14103E-3
MEAN_MOTION_DDOT = 0

CCSDS_OMM_VERS = 2.0
CREATION_DATE  = 
ORIGINATOR     = 

OBJECT_NAME    = SZ-21 MODULE
OBJECT_ID      = 2025-246C
CENTER_NAME    = EARTH
REF_FRAME      = TEME
TIME_SYSTEM    = UTC
MEAN_ELEMENT_THEORY = SGP/SGP4

EPOCH          = 2026-01-02T01:11:10.643136
MEAN_MOTION    = 15.63714409
ECCENTRICITY   = .0002575
INCLINATION    = 41.4758
RA_OF_ASC_NODE = 252.0509
ARG_OF_PERICENTER = 18.3037
MEAN_ANOMALY   = 341.7895

EPHEMERIS_TYPE = 0
CLASSIFICATION_TYPE = U
NORAD_CAT_ID   = 66515
ELEMENT_SET_NO = 999
REV_AT_EPOCH   = 762
BSTAR          = .41968E-3
MEAN_MOTION_DOT = .40185E-3
MEAN_MOTION_DDOT = 0

CCSDS_OMM_VERS = 2.0
CREATION_DATE  = 
ORIGINATOR     = 

OBJECT_NAME    = SHENZHOU-22
OBJECT_ID      = 2025-272A
CENTER_NAME    = EARTH
REF_FRAME      = TEME
TIME_SYSTEM    = UTC
MEAN_ELEMENT_THEORY = SGP/SGP4

EPOCH          = 2026-01-01T22:48:00.000864
MEAN_MOTION    = 15.60041329
ECCENTRICITY   = .00101484
INCLINATION    = 41.4663
RA_OF_ASC_NODE = 253.9368
ARG_OF_PERICENTER = 200.7574
MEAN_ANOMALY   = 159.2853

EPHEMERIS_TYPE = 0
CLASSIFICATION_TYPE = U
NORAD_CAT_ID   = 66645
ELEMENT_SET_NO = 999
REV_AT_EPOCH   = 26714
BSTAR          = .32147889E-3
MEAN_MOTION_DOT = .26593E-3
MEAN_MOTION_DDOT = 0

